IRIDIUM 136             
1 42962U 17061H   23312.05280165  .00000770  00000+0  26772-3 0  9996
2 42962  86.3978  63.1489 0001776  91.0181 269.1218 14.34223073318367
